OBJECT B                
1 51825U 22019B   25106.92279408  .00075682  00000+0  20112-2 0  9995
2 51825  97.3877 183.1026 0010111 234.2294 125.8012 15.37924895173648
